NORAD_CAT_ID,OBJECT_NAME,OBJECT_TYPE,EPOCH,MEAN_MOTION,ECCENTRICITY,INCLINATION,RA_OF_ASC_NODE,ARG_OF_PERICENTER,MEAN_ANOMALY,BSTAR,MEAN_MOTION_DOT,MEAN_MOTION_DDOT,TLE_LINE0,TLE_LINE1,TLE_LINE2,SEMIMAJOR_AXIS,PERIOD,APOGEE,PERIGEE,DECAYED
55438.0,STARLINK-5074,PAYLOAD,2024-05-21 12:40:39,14.98333586,0.0003307,69.9996,281.2224,279.8904,80.1881,-0.00016127,-2.017e-05,0.0,0 STARLINK-5074,1 55438U 23014AZ  24142.52822945 -.00002017  00000-0 -16127-3 0  9997,2 55438  69.9996 281.2224 0003307 279.8904  80.1881 14.98333586 72687,6950.182,96.107,574.345,569.748,0.0
55438.0,STARLINK-5074,PAYLOAD,2024-05-21 14:16:47,14.98327116,0.000269,70.0002,281.0519,274.0708,86.0144,-0.00026054,-3.2e-05,0.0,0 STARLINK-5074,1 55438U 23014AZ  24142.59499561 -.00003200  00000-0 -26054-3 0  9993,2 55438  70.0002 281.0519 0002690 274.0708  86.0144 14.98327116 73631,6950.202,96.107,573.936,570.197,0.0
55438.0,STARLINK-5074,PAYLOAD,2024-05-21 19:05:11,14.98336697,0.0003199,69.9989,280.5484,268.2775,91.8018,-0.00022583,-2.787e-05,0.0,0 STARLINK-5074,1 55438U 23014AZ  24142.79526682 -.00002787  00000-0 -22583-3 0  9992,2 55438  69.9989 280.5484 0003199 268.2775  91.8018 14.98336697 73662,6950.172,96.107,574.261,569.814,0.0
55438.0,STARLINK-5074,PAYLOAD,2024-05-22 11:06:31,14.98338034,0.0002853,69.9997,278.8645,261.4017,98.6819,-0.00028715,-3.518e-05,0.0,0 STARLINK-5074,1 55438U 23014AZ  24143.46286709 -.00003518  00000-0 -28715-3 0  9996,2 55438  69.9997 278.8645 0002853 261.4017  98.6819 14.98338034 73762,6950.168,96.106,574.016,570.05,0.0
55438.0,STARLINK-5074,PAYLOAD,2024-05-22 19:07:11,14.98341416,0.0002615,70.0003,278.0231,260.4558,99.6305,-0.00021955,-2.712e-05,0.0,0 STARLINK-5074,1 55438U 23014AZ  24143.79666147 -.00002712  00000-0 -21955-3 0  9994,2 55438  70.0003 278.0231 0002615 260.4558  99.6305 14.98341416 72871,6950.158,96.106,573.84,570.205,0.0
55438.0,STARLINK-5074,PAYLOAD,2024-05-23 12:44:40,14.98323104,0.0002486,70.0002,276.1715,261.9677,98.12,0.00011087,1.23e-05,0.0,0 STARLINK-5074,1 55438U 23014AZ  24144.53102298  .00001230  00000-0  11087-3 0  9996,2 55438  70.0002 276.1715 0002486 261.9677  98.1200 14.98323104 72984,6950.214,96.107,573.807,570.351,0.0
55438.0,STARLINK-5074,PAYLOAD,2024-05-23 14:20:48,14.98323457,0.0002474,70.0003,276.0033,261.9104,98.1774,0.00011323,1.258e-05,0.0,0 STARLINK-5074,1 55438U 23014AZ  24144.59778299  .00001258  00000-0  11323-3 0  9995,2 55438  70.0003 276.0033 0002474 261.9104  98.1774 14.98323457 73932,6950.213,96.107,573.798,570.359,0.0
55438.0,STARLINK-5074,PAYLOAD,2024-05-23 19:09:12,14.98326208,0.0002443,70.0004,275.4988,258.3835,101.705,0.00013572,1.527e-05,0.0,0 STARLINK-5074,1 55438U 23014AZ  24144.79806109  .00001527  00000-0  13572-3 0  9996,2 55438  70.0004 275.4988 0002443 258.3835 101.7050 14.98326208 73960,6950.205,96.107,573.768,570.372,0.0
55438.0,STARLINK-5074,PAYLOAD,2024-05-24 12:46:41,14.98325324,0.0002388,70.0006,273.6466,258.4714,101.6176,-8.6889e-06,-1.97e-06,0.0,0 STARLINK-5074,1 55438U 23014AZ  24145.53242739 -.00000197  00000-0 -86889-5 0  9999,2 55438  70.0006 273.6466 0002388 258.4714 101.6176 14.98325324 73133,6950.207,96.107,573.732,570.413,0.0
55438.0,STARLINK-5074,PAYLOAD,2024-05-24 14:22:49,14.98325236,0.0002389,70.0006,273.4783,258.4277,101.6614,-9.5352e-06,-2.07e-06,0.0,0 STARLINK-5074,1 55438U 23014AZ  24145.59918764 -.00000207  00000-0 -95352-5 0  9990,2 55438  70.0006 273.4783 0002389 258.4277 101.6614 14.98325236 74082,6950.208,96.107,573.733,570.412,0.0
55438.0,STARLINK-5074,PAYLOAD,2024-05-24 19:11:13,14.98330674,0.0002554,69.9999,272.9716,267.8879,92.1988,3.3644e-05,3.09e-06,0.0,0 STARLINK-5074,1 55438U 23014AZ  24145.79946335  .00000309  00000-0  33644-4 0  9993,2 55438  69.9999 272.9716 0002554 267.8879  92.1988 14.98330674 74110,6950.191,96.107,573.831,570.281,0.0
55438.0,STARLINK-5074,PAYLOAD,2024-05-25 12:48:42,14.98329351,0.0002633,69.9998,271.1201,263.1401,96.9459,-2.0396e-05,-3.36e-06,0.0,0 STARLINK-5074,1 55438U 23014AZ  24146.53382511 -.00000336  00000-0 -20396-4 0  9998,2 55438  69.9998 271.1201 0002633 263.1401  96.9459 14.98329351 73289,6950.195,96.107,573.89,570.23,0.0
55438.0,STARLINK-5074,PAYLOAD,2024-05-25 14:24:50,14.98328792,0.0002685,69.9994,270.9512,260.9519,99.1336,-1.2944e-05,-2.47e-06,0.0,0 STARLINK-5074,1 55438U 23014AZ  24146.60058567 -.00000247  00000-0 -12944-4 0  9998,2 55438  69.9994 270.9512 0002685 260.9519  99.1336 14.98328792 74232,6950.197,96.107,573.928,570.195,0.0
55438.0,STARLINK-5074,PAYLOAD,2024-05-25 19:13:14,14.98333885,0.000263,70.0001,270.4437,257.0868,102.9997,0.00010496,1.16e-05,0.0,0 STARLINK-5074,1 55438U 23014AZ  24146.80085848  .00001160  00000-0  10496-3 0  9994,2 55438  70.0001 270.4437 0002630 257.0868 102.9997 14.98333885 73323,6950.181,96.107,573.874,570.218,0.0
55438.0,STARLINK-5074,PAYLOAD,2024-05-26 01:37:47,14.98314415,0.0002749,70.0001,269.7742,258.9849,101.1001,-9.9036e-06,-2.11e-06,0.0,0 STARLINK-5074,1 55438U 23014AZ  24147.06791084 -.00000211  00000-0 -99036-5 0  9996,2 55438  70.0001 269.7742 0002749 258.9849 101.1001 14.98314415 73362,6950.241,96.108,574.017,570.195,0.0
55438.0,STARLINK-5074,PAYLOAD,2024-05-26 12:50:41,14.9836286,0.00028,69.9998,268.5953,269.7854,90.2984,-4.3129e-05,-6.08e-06,0.0,0 STARLINK-5074,1 55438U 23014AZ  24147.53519801 -.00000608  00000-0 -43129-4 0  9994,2 55438  69.9998 268.5953 0002800 269.7854  90.2984 14.98362860 73432,6950.091,96.105,573.902,570.01,0.0
55438.0,STARLINK-5074,PAYLOAD,2024-05-26 14:26:48,14.98357601,0.000264,70.0003,268.4274,265.9522,94.1336,0.0003227,3.762e-05,0.0,0 STARLINK-5074,1 55438U 23014AZ  24147.60195005  .00003762  00000-0  32270-3 0  9994,2 55438  70.0003 268.4274 0002640 265.9522  94.1336 14.98357601 74385,6950.108,96.105,573.807,570.138,0.0
55438.0,STARLINK-5074,PAYLOAD,2024-05-26 17:39:04,14.9835127,0.0002798,70.0002,268.0914,270.0174,90.0665,0.00024415,2.823e-05,0.0,0 STARLINK-5074,1 55438U 23014AZ  24147.73547435  .00002823  00000-0  24415-3 0  9995,2 55438  70.0002 268.0914 0002798 270.0174  90.0665 14.98351270 74404,6950.127,96.106,573.937,570.047,0.0
55438.0,STARLINK-5074,PAYLOAD,2024-05-27 01:39:46,14.98330825,0.0002816,70.0,267.2493,270.7772,89.3065,-3.8816e-05,-5.56e-06,0.0,0 STARLINK-5074,1 55438U 23014AZ  24148.06929217 -.00000556  00000-0 -38816-4 0  9998,2 55438  70.0000 267.2493 0002816 270.7772  89.3065 14.98330825 73516,6950.19,96.107,574.013,570.098,0.0
55438.0,STARLINK-5074,PAYLOAD,2024-05-27 12:52:44,14.98320205,0.0002802,70.0005,266.0719,265.2428,94.8412,-0.00012056,-1.531e-05,0.0,0 STARLINK-5074,1 55438U 23014AZ  24148.53662250 -.00001531  00000-0 -12056-3 0  9992,2 55438  70.0005 266.0719 0002802 265.2428  94.8412 14.98320205 73586,6950.223,96.108,574.036,570.141,0.0
55438.0,STARLINK-5074,PAYLOAD,2024-05-27 14:28:52,14.98315425,0.0002977,70.0012,265.9062,266.6807,93.4012,-0.00011508,-1.465e-05,0.0,0 STARLINK-5074,1 55438U 23014AZ  24148.60338525 -.00001465  00000-0 -11508-3 0  9992,2 55438  70.0012 265.9062 0002977 266.6807  93.4012 14.98315425 74537,6950.238,96.108,574.172,570.034,0.0
55438.0,STARLINK-5074,PAYLOAD,2024-05-27 17:41:08,14.98318916,0.0003284,69.9993,265.5663,268.0965,91.9818,-0.00016716,-2.086e-05,0.0,0 STARLINK-5074,1 55438U 23014AZ  24148.73690473 -.00002086  00000-0 -16716-3 0  9995,2 55438  69.9993 265.5663 0003284 268.0965  91.9818 14.98318916 74555,6950.227,96.108,574.375,569.81,0.0
55438.0,STARLINK-5074,PAYLOAD,2024-05-28 12:54:44,14.9833588,0.0003442,69.9993,263.5453,270.9116,89.1648,-0.00019593,-2.43e-05,0.0,0 STARLINK-5074,1 55438U 23014AZ  24149.53801489 -.00002430  00000-0 -19593-3 0  9994,2 55438  69.9993 263.5453 0003442 270.9116  89.1648 14.98335880 73734,6950.175,96.107,574.432,569.647,0.0
55438.0,STARLINK-5074,PAYLOAD,2024-05-28 14:30:52,14.98336898,0.0003418,69.9994,263.3775,271.0281,89.0486,-0.00017881,-2.226e-05,0.0,0 STARLINK-5074,1 55438U 23014AZ  24149.60477369 -.00002226  00000-0 -17881-3 0  9999,2 55438  69.9994 263.3775 0003418 271.0281  89.0486 14.98336898 74682,6950.172,96.107,574.412,569.661,0.0
55438.0,STARLINK-5074,PAYLOAD,2024-05-28 17:43:08,14.98341934,0.0003333,69.9993,263.0411,268.4764,91.6013,-0.0001391,-1.753e-05,0.0,0 STARLINK-5074,1 55438U 23014AZ  24149.73828835 -.00001753  00000-0 -13910-3 0  9994,2 55438  69.9993 263.0411 0003333 268.4764  91.6013 14.98341934 73767,6950.156,96.106,574.337,569.704,0.0
55438.0,STARLINK-5074,PAYLOAD,2024-05-29 11:20:37,14.98318517,0.0003339,69.9996,261.1891,265.8774,94.2003,0.00013342,1.499e-05,0.0,0 STARLINK-5074,1 55438U 23014AZ  24150.47265679  .00001499  00000-0  13342-3 0  9992,2 55438  69.9996 261.1891 0003339 265.8774  94.2003 14.98318517 73870,6950.228,96.108,574.414,569.773,0.0
55438.0,STARLINK-5074,PAYLOAD,2024-05-29 17:45:09,14.98322527,0.0003283,69.9998,260.516,266.3934,93.685,0.00016624,1.891e-05,0.0,0 STARLINK-5074,1 55438U 23014AZ  24150.73969491  .00001891  00000-0  16624-3 0  9996,2 55438  69.9998 260.5160 0003283 266.3934  93.6850 14.98322527 74854,6950.216,96.107,574.363,569.799,0.0
55438.0,STARLINK-5074,PAYLOAD,2024-05-30 11:22:38,14.98329941,0.0003166,70.0,258.6643,264.3359,95.7439,2.7896e-06,-6e-07,0.0,0 STARLINK-5074,1 55438U 23014AZ  24151.47405635 -.00000060  00000-0  27896-5 0  9996,2 55438  70.0000 258.6643 0003166 264.3359  95.7439 14.98329941 74026,6950.193,96.107,574.259,569.858,0.0
55438.0,STARLINK-5074,PAYLOAD,2024-05-30 14:34:54,14.98330987,0.0003144,70.0,258.3276,263.7613,96.3188,1.5786e-05,9.5e-07,0.0,0 STARLINK-5074,1 55438U 23014AZ  24151.60757525  .00000095  00000-0  15786-4 0  9990,2 55438  70.0000 258.3276 0003144 263.7613  96.3188 14.98330987 74982,6950.19,96.107,574.24,569.87,0.0
55438.0,STARLINK-5074,PAYLOAD,2024-05-30 17:47:10,14.98332321,0.0003135,70.0,257.9908,263.5017,96.5785,3.0103e-05,2.66e-06,0.0,0 STARLINK-5074,1 55438U 23014AZ  24151.74109379  .00000266  00000-0  30103-4 0  9993,2 55438  70.0000 257.9908 0003135 263.5017  96.5785 14.98332321 75008,6950.186,96.107,574.23,569.872,0.0
